{"fetched_at":"2026-07-08T17:59:48.661Z","source":"https://celestrak.org/NORAD/elements/gp.php?NAME=HAWK&FORMAT=JSON","constellation":"hawkeye-360","records":[{"OBJECT_NAME":"HAWK-12A","OBJECT_ID":"2025-138C","EPOCH":"2026-07-08T11:04:41.573856","CLASSIFICATION_TYPE":"U","MEAN_MOTION":15.18372911,"ECCENTRICITY":0.0015535,"INCLINATION":97.4413,"RA_OF_ASC_NODE":191.8859,"ARG_OF_PERICENTER":67.6091,"MEAN_ANOMALY":292.6788,"EPHEMERIS_TYPE":0,"NORAD_CAT_ID":64623,"ELEMENT_SET_NO":999,"REV_AT_EPOCH":5709,"BSTAR":0.00013376,"MEAN_MOTION_DOT":0.00002689,"MEAN_MOTION_DDOT":0},{"OBJECT_NAME":"HAWK-13A","OBJECT_ID":"2026-004AF","EPOCH":"2026-07-08T11:15:14.116896","CLASSIFICATION_TYPE":"U","MEAN_MOTION":15.19322974,"ECCENTRICITY":0.0003687,"INCLINATION":97.4444,"RA_OF_ASC_NODE":188.0364,"ARG_OF_PERICENTER":250.9435,"MEAN_ANOMALY":109.14,"EPHEMERIS_TYPE":0,"NORAD_CAT_ID":67392,"ELEMENT_SET_NO":999,"REV_AT_EPOCH":2699,"BSTAR":0.00015262,"MEAN_MOTION_DOT":0.00003155,"MEAN_MOTION_DDOT":0},{"OBJECT_NAME":"HAWK-13C","OBJECT_ID":"2026-004AG","EPOCH":"2026-07-08T11:15:01.208736","CLASSIFICATION_TYPE":"U","MEAN_MOTION":15.19323084,"ECCENTRICITY":0.0003551,"INCLINATION":97.459,"RA_OF_ASC_NODE":188.4475,"ARG_OF_PERICENTER":256.4357,"MEAN_ANOMALY":103.6482,"EPHEMERIS_TYPE":0,"NORAD_CAT_ID":67393,"ELEMENT_SET_NO":999,"REV_AT_EPOCH":2699,"BSTAR":0.00015046,"MEAN_MOTION_DOT":0.00003109,"MEAN_MOTION_DDOT":0},{"OBJECT_NAME":"HAWK-13B","OBJECT_ID":"2026-004AK","EPOCH":"2026-07-08T11:14:53.229696","CLASSIFICATION_TYPE":"U","MEAN_MOTION":15.19322414,"ECCENTRICITY":0.0004846,"INCLINATION":97.453,"RA_OF_ASC_NODE":188.276,"ARG_OF_PERICENTER":255.2739,"MEAN_ANOMALY":104.7959,"EPHEMERIS_TYPE":0,"NORAD_CAT_ID":67396,"ELEMENT_SET_NO":999,"REV_AT_EPOCH":2699,"BSTAR":0.00015094,"MEAN_MOTION_DOT":0.0000312,"MEAN_MOTION_DDOT":0},{"OBJECT_NAME":"HAWK-14B","OBJECT_ID":"2026-067W","EPOCH":"2026-07-07T20:14:45.940128","CLASSIFICATION_TYPE":"U","MEAN_MOTION":15.1839201,"ECCENTRICITY":0.0002392,"INCLINATION":97.4555,"RA_OF_ASC_NODE":146.9977,"ARG_OF_PERICENTER":21.2341,"MEAN_ANOMALY":338.8992,"EPHEMERIS_TYPE":0,"NORAD_CAT_ID":68436,"ELEMENT_SET_NO":999,"REV_AT_EPOCH":1507,"BSTAR":0.00013753,"MEAN_MOTION_DOT":0.0000276,"MEAN_MOTION_DDOT":0},{"OBJECT_NAME":"HAWK-14C","OBJECT_ID":"2026-067AB","EPOCH":"2026-07-07T20:14:54.940416","CLASSIFICATION_TYPE":"U","MEAN_MOTION":15.18394419,"ECCENTRICITY":0.0003378,"INCLINATION":97.4491,"RA_OF_ASC_NODE":146.8837,"ARG_OF_PERICENTER":41.506,"MEAN_ANOMALY":318.643,"EPHEMERIS_TYPE":0,"NORAD_CAT_ID":68441,"ELEMENT_SET_NO":999,"REV_AT_EPOCH":1507,"BSTAR":0.00014015,"MEAN_MOTION_DOT":0.00002814,"MEAN_MOTION_DDOT":0},{"OBJECT_NAME":"HAWK-14A","OBJECT_ID":"2026-067AJ","EPOCH":"2026-07-07T20:15:05.761152","CLASSIFICATION_TYPE":"U","MEAN_MOTION":15.18389711,"ECCENTRICITY":0.0004078,"INCLINATION":97.4616,"RA_OF_ASC_NODE":147.1184,"ARG_OF_PERICENTER":34.9941,"MEAN_ANOMALY":325.156,"EPHEMERIS_TYPE":0,"NORAD_CAT_ID":68448,"ELEMENT_SET_NO":999,"REV_AT_EPOCH":1507,"BSTAR":0.00013788,"MEAN_MOTION_DOT":0.00002767,"MEAN_MOTION_DDOT":0}]}
