HAWK-12A                
1 64623U 25138C   26189.46159229  .00002689  00000+0  13376-3 0  9991
2 64623  97.4413 191.8859 0015535  67.6091 292.6788 15.18372911 57091
HAWK-13A                
1 67392U 26004AF  26189.46891339  .00003155  00000+0  15262-3 0  9990
2 67392  97.4444 188.0364 0003687 250.9435 109.1400 15.19322974 26997
HAWK-13C                
1 67393U 26004AG  26189.46876399  .00003109  00000+0  15046-3 0  9999
2 67393  97.4590 188.4475 0003551 256.4357 103.6482 15.19323084 26993
HAWK-13B                
1 67396U 26004AK  26189.46867164  .00003120  00000+0  15094-3 0  9998
2 67396  97.4530 188.2760 0004846 255.2739 104.7959 15.19322414 26991
HAWK-14B                
1 68436U 26067W   26188.84358727  .00002760  00000+0  13753-3 0  9993
2 68436  97.4555 146.9977 0002392  21.2341 338.8992 15.18392010 15071
HAWK-14C                
1 68441U 26067AB  26188.84369144  .00002814  00000+0  14015-3 0  9996
2 68441  97.4491 146.8837 0003378  41.5060 318.6430 15.18394419 15076
HAWK-14A                
1 68448U 26067AJ  26188.84381668  .00002767  00000+0  13788-3 0  9991
2 68448  97.4616 147.1184 0004078  34.9941 325.1560 15.18389711 15079
